[{"OBJECT_NAME":"STARLINK-11393 [DTC]","OBJECT_ID":"2024-213J","EPOCH":"2026-03-09T05:01:51.673440","MEAN_MOTION":15.69715763,"ECCENTRICITY":0.00014027,"INCLINATION":53.1577,"RA_OF_ASC_NODE":43.3426,"ARG_OF_PERICENTER":57.7868,"MEAN_ANOMALY":302.3286,"EPHEMERIS_TYPE":0,"CLASSIFICATION_TYPE":"U","NORAD_CAT_ID":62016,"ELEMENT_SET_NO":999,"REV_AT_EPOCH":7484,"BSTAR":0.0016817683,"MEAN_MOTION_DOT":0.00208403,"MEAN_MOTION_DDOT":0},{"OBJECT_NAME":"CZ-2F DEB","OBJECT_ID":"2026-024G","EPOCH":"2026-03-09T22:26:56.614272","MEAN_MOTION":15.01116214,"ECCENTRICITY":0.03207922,"INCLINATION":49.8328,"RA_OF_ASC_NODE":21.451,"ARG_OF_PERICENTER":268.4479,"MEAN_ANOMALY":87.9702,"EPHEMERIS_TYPE":0,"CLASSIFICATION_TYPE":"U","NORAD_CAT_ID":67720,"ELEMENT_SET_NO":999,"REV_AT_EPOCH":459,"BSTAR":0.0038278463,"MEAN_MOTION_DOT":0.00157764,"MEAN_MOTION_DDOT":0}]
